SHIYAN-24C 02           
1 58651U 23206B   26068.89175597  .00002770  00000+0  23935-3 0  9991
2 58651  97.3985  41.8071 0003465  80.6641 279.4974 14.97980163120443
STARLINK-33946          
1 64034U 25102N   26068.56182453  .00001072  00000+0  97620-4 0  9990
2 64034  70.0015 114.7583 0003559 266.8862  93.1890 14.98331113 45981
